{"type": "FeatureCollection", "features": [ {"type": "Feature", "properties": {"norad_id": 17070, "name": "POLAR BEAR", "group": "nnss", "lat": 73.91061447400264, "lon": 1.8522046731076292, "alt_km": 947.3254802383108, "timestamp": "2025-12-27T12:55:14.773815+00:00", "meta": {"OBJECT_NAME": "POLAR BEAR", "OBJECT_ID": "1986-088A", "EPOCH": "2025-12-27T06:15:35.338752", "MEAN_MOTION": 13.75253832, "ECCENTRICITY": 0.00412517, "INCLINATION": 89.617, "RA_OF_ASC_NODE": 183.1922, "ARG_OF_PERICENTER": 77.5112, "MEAN_ANOMALY": 95.0753, "EPHEMERIS_TYPE": 0, "CLASSIFICATION_TYPE": "U", "NORAD_CAT_ID": 17070, "ELEMENT_SET_NO": 999, "REV_AT_EPOCH": 96178, "BSTAR": 0.0001183469, "MEAN_MOTION_DOT": 1.26e-06, "MEAN_MOTION_DDOT": 0}, "tle": {"line1": "1 17070U 86088A   25361.26082568  .00000126  00000+0  11835-3 0  9998", "line2": "2 17070  89.6170 183.1922 0041251  77.5112  95.0753 13.75253832961789"}}, "geometry": {"type": "Point", "coordinates": [1.8522046731076292, 73.91061447400264]}}, {"type": "Feature", "properties": {"norad_id": 18361, "name": "OSCAR 27", "group": "nnss", "lat": -9.219014143667666, "lon": -100.23516999010441, "alt_km": 1018.0226370538912, "timestamp": "2025-12-27T12:55:14.773826+00:00", "meta": {"OBJECT_NAME": "OSCAR 27", "OBJECT_ID": "1987-080A", "EPOCH": "2025-12-27T06:37:38.342208", "MEAN_MOTION": 13.44909782, "ECCENTRICITY": 0.01041465, "INCLINATION": 90.3735, "RA_OF_ASC_NODE": 79.8157, "ARG_OF_PERICENTER": 182.017, "MEAN_ANOMALY": 178.0573, "EPHEMERIS_TYPE": 0, "CLASSIFICATION_TYPE": "U", "NORAD_CAT_ID": 18361, "ELEMENT_SET_NO": 999, "REV_AT_EPOCH": 87752, "BSTAR": 0.00017370212, "MEAN_MOTION_DOT": 1.14e-06, "MEAN_MOTION_DDOT": 0}, "tle": {"line1": "1 18361U 87080A   25361.27613822  .00000114  00000+0  17370-3 0  9996", "line2": "2 18361  90.3735  79.8157 0104146 182.0170 178.0573 13.44909782877527"}}, "geometry": {"type": "Point", "coordinates": [-100.23516999010441, -9.219014143667666]}}, {"type": "Feature", "properties": {"norad_id": 18362, "name": "OSCAR 29", "group": "nnss", "lat": 3.7035486629968357, "lon": -99.6901206508432, "alt_km": 1025.903607442534, "timestamp": "2025-12-27T12:55:14.773836+00:00", "meta": {"OBJECT_NAME": "OSCAR 29", "OBJECT_ID": "1987-080B", "EPOCH": "2025-12-27T07:00:45.935712", "MEAN_MOTION": 13.44451184, "ECCENTRICITY": 0.01049483, "INCLINATION": 90.3747, "RA_OF_ASC_NODE": 80.2764, "ARG_OF_PERICENTER": 205.0931, "MEAN_ANOMALY": 220.9034, "EPHEMERIS_TYPE": 0, "CLASSIFICATION_TYPE": "U", "NORAD_CAT_ID": 18362, "ELEMENT_SET_NO": 999, "REV_AT_EPOCH": 87705, "BSTAR": 0.00014998597, "MEAN_MOTION_DOT": 9.8e-07, "MEAN_MOTION_DDOT": 0}, "tle": {"line1": "1 18362U 87080B   25361.29219833  .00000098  00000+0  14999-3 0  9998", "line2": "2 18362  90.3747  80.2764 0104948 205.0931 220.9034 13.44451184877057"}}, "geometry": {"type": "Point", "coordinates": [-99.6901206508432, 3.7035486629968357]}}, {"type": "Feature", "properties": {"norad_id": 19070, "name": "OSCAR 23", "group": "nnss", "lat": 33.983060174008386, "lon": -162.93333165727643, "alt_km": 1010.3615642736868, "timestamp": "2025-12-27T12:55:14.773854+00:00", "meta": {"OBJECT_NAME": "OSCAR 23", "OBJECT_ID": "1988-033A", "EPOCH": "2025-12-27T01:28:05.869056", "MEAN_MOTION": 13.27789432, "ECCENTRICITY": 0.01906122, "INCLINATION": 90.3203, "RA_OF_ASC_NODE": 16.8358, "ARG_OF_PERICENTER": 140.2128, "MEAN_ANOMALY": 245.8061, "EPHEMERIS_TYPE": 0, "CLASSIFICATION_TYPE": "U", "NORAD_CAT_ID": 19070, "ELEMENT_SET_NO": 999, "REV_AT_EPOCH": 82443, "BSTAR": 0.00016492817, "MEAN_MOTION_DOT": 9.2e-07, "MEAN_MOTION_DDOT": 0}, "tle": {"line1": "1 19070U 88033A   25361.06117904  .00000092  00000+0  16493-3 0  9990", "line2": "2 19070  90.3203  16.8358 0190612 140.2128 245.8061 13.27789432824437"}}, "geometry": {"type": "Point", "coordinates": [-162.93333165727643, 33.983060174008386]}}, {"type": "Feature", "properties": {"norad_id": 19071, "name": "OSCAR 32", "group": "nnss", "lat": -86.24091516236955, "lon": -167.9081048619471, "alt_km": 1270.8085475361613, "timestamp": "2025-12-27T12:55:14.773879+00:00", "meta": {"OBJECT_NAME": "OSCAR 32", "OBJECT_ID": "1988-033B", "EPOCH": "2025-12-27T08:02:26.272320", "MEAN_MOTION": 13.27956102, "ECCENTRICITY": 0.01893608, "INCLINATION": 90.3208, "RA_OF_ASC_NODE": 16.977, "ARG_OF_PERICENTER": 126.3944, "MEAN_ANOMALY": 246.9285, "EPHEMERIS_TYPE": 0, "CLASSIFICATION_TYPE": "U", "NORAD_CAT_ID": 19071, "ELEMENT_SET_NO": 999, "REV_AT_EPOCH": 82459, "BSTAR": 0.00014086952, "MEAN_MOTION_DOT": 8e-07, "MEAN_MOTION_DDOT": 0}, "tle": {"line1": "1 19071U 88033B   25361.33502630  .00000080  00000+0  14087-3 0  9999", "line2": "2 19071  90.3208  16.9770 0189360 126.3944 246.9285 13.27956102824598"}}, "geometry": {"type": "Point", "coordinates": [-167.9081048619471, -86.24091516236955]}}, {"type": "Feature", "properties": {"norad_id": 19223, "name": "NOVA 2", "group": "nnss", "lat": -15.006233307537734, "lon": -101.74263974591366, "alt_km": 1195.3517617626794, "timestamp": "2025-12-27T12:55:14.773908+00:00", "meta": {"OBJECT_NAME": "NOVA 2", "OBJECT_ID": "1988-052A", "EPOCH": "2025-12-27T04:56:26.312640", "MEAN_MOTION": 13.22937732, "ECCENTRICITY": 0.00293738, "INCLINATION": 89.9862, "RA_OF_ASC_NODE": 78.2541, "ARG_OF_PERICENTER": 336.6486, "MEAN_ANOMALY": 75.7931, "EPHEMERIS_TYPE": 0, "CLASSIFICATION_TYPE": "U", "NORAD_CAT_ID": 19223, "ELEMENT_SET_NO": 999, "REV_AT_EPOCH": 81139, "BSTAR": 0.00015382382, "MEAN_MOTION_DOT": 7.3e-07, "MEAN_MOTION_DDOT": 0}, "tle": {"line1": "1 19223U 88052A   25361.20586010  .00000073  00000+0  15382-3 0  9990", "line2": "2 19223  89.9862  78.2541 0029373 336.6486  75.7931 13.22937732811391"}}, "geometry": {"type": "Point", "coordinates": [-101.74263974591366, -15.006233307537734]}}, {"type": "Feature", "properties": {"norad_id": 19419, "name": "OSCAR 25", "group": "nnss", "lat": -59.447758413038365, "lon": -159.76519383589408, "alt_km": 1048.9847404115526, "timestamp": "2025-12-27T12:55:14.773926+00:00", "meta": {"OBJECT_NAME": "OSCAR 25", "OBJECT_ID": "1988-074A", "EPOCH": "2025-12-27T03:08:34.260576", "MEAN_MOTION": 13.42625944, "ECCENTRICITY": 0.00953655, "INCLINATION": 90.0336, "RA_OF_ASC_NODE": 20.2904, "ARG_OF_PERICENTER": 204.27, "MEAN_ANOMALY": 226.4208, "EPHEMERIS_TYPE": 0, "CLASSIFICATION_TYPE": "U", "NORAD_CAT_ID": 19419, "ELEMENT_SET_NO": 999, "REV_AT_EPOCH": 82833, "BSTAR": 0.00015106855, "MEAN_MOTION_DOT": 9.7e-07, "MEAN_MOTION_DDOT": 0}, "tle": {"line1": "1 19419U 88074A   25361.13095209  .00000097  00000+0  15107-3 0  9999", "line2": "2 19419  90.0336  20.2904 0095365 204.2700 226.4208 13.42625944828335"}}, "geometry": {"type": "Point", "coordinates": [-159.76519383589408, -59.447758413038365]}}, {"type": "Feature", "properties": {"norad_id": 19420, "name": "OSCAR 31", "group": "nnss", "lat": 60.55239583241965, "lon": -159.2931726770609, "alt_km": 1078.4863451469946, "timestamp": "2025-12-27T12:55:14.773938+00:00", "meta": {"OBJECT_NAME": "OSCAR 31", "OBJECT_ID": "1988-074B", "EPOCH": "2025-12-27T07:00:56.464416", "MEAN_MOTION": 13.4258693, "ECCENTRICITY": 0.00937787, "INCLINATION": 90.0353, "RA_OF_ASC_NODE": 20.6434, "ARG_OF_PERICENTER": 197.9639, "MEAN_ANOMALY": 173.9697, "EPHEMERIS_TYPE": 0, "CLASSIFICATION_TYPE": "U", "NORAD_CAT_ID": 19420, "ELEMENT_SET_NO": 999, "REV_AT_EPOCH": 82846, "BSTAR": 0.00012904348, "MEAN_MOTION_DOT": 8.4e-07, "MEAN_MOTION_DDOT": 0}, "tle": {"line1": "1 19420U 88074B   25361.29232019  .00000084  00000+0  12904-3 0  9998", "line2": "2 19420  90.0353  20.6434 0093778 197.9639 173.9697 13.42586930828466"}}, "geometry": {"type": "Point", "coordinates": [-159.2931726770609, 60.55239583241965]}}]}